ADRAS-J                 
1 58992U 24034A   24203.93301016  .00006451  00000+0  59560-3 0  9993
2 58992  98.2133 178.5417 0042023 295.2641  64.4226 14.94324515 23056
